STARLINK-31702          
1 59585U 24076X   26068.19829379 -.00002266  00000+0 -72846-4 0  9999
2 59585  43.0030  12.1073 0001618 250.6764 109.3912 15.27570248106423
TRANSPORTER-14 OBJECT AC
1 64554U 25135AC  26068.82113864  .00024574  00000+0  93234-3 0  9990
2 64554  97.4518 185.7428 0001008 268.0523  92.0600 15.26845403 39827
